211P/Hill,e,18.9262,117.1001,4.3674,3.548790,0.1474292,0.34457146,169.4776,11/28.0/2025,2000,g 12.5,4.0
# From MPEC 2025-W75
212P/NEAT,e,22.1494,97.9711,14.0789,3.903923,0.1277769,0.58676656,74.3420,11/28.0/2025,2000,g 17.0,2.0
# From MPEC 2025-W75
213P/VanNess,e,10.5478,310.5424,7.1841,3.361889,0.1598929,0.41196569,118.6629,11/28.0/2025,2000,g 10.5,4.0
# From MPEC 2025-GB9
213P-B/Van Ness,e,10.5471,310.5393,7.2014,3.361727,0.1599044,0.41184702,118.6918,11/28.0/2025,2000,g 17.0,4.0
# From MPC 76570
213P-C/Van Ness,e,10.3680,4.3906,313.0990,3.357432,0.1602114,0.41085030,119.3207,11/28.0/2025,2000,g 17.5,4.0
# From MPC 76571
213P-D/Van Ness,e,10.2589,312.6950,4.1428,3.408406,0.1566308,0.37502761,359.9537,06/18.0/2011,2000,g 17.5,4.0
# From MPEC 2025-W75
214P/LINEAR,e,15.1946,348.2248,190.1072,3.615970,0.1433398,0.48647518,166.0370,11/28.0/2025,2000,g 13.0,4.0
# From MPEC 2025-W75
215P/NEAT,e,10.5760,56.6808,262.1712,4.336706,0.1091350,0.16484838,240.8403,11/28.0/2025,2000,g 11.0,4.0
# From MPEC 2025-W75
216P/LINEAR,e,9.0620,359.7695,151.7877,3.860583,0.1299346,0.44911336,89.7730,11/28.0/2025,2000,g 13.0,4.0
# From MPEC 2025-WD0
217P/LINEAR,e,12.8669,125.3680,247.0435,3.946749,0.1257027,0.68929258,23.5108,11/28.0/2025,2000,g 12.0,4.0
# From MPEC 2025-W75
218P/LINEAR,e,2.7267,174.7206,61.4029,3.059554,0.1841691,0.63083725,342.3412,11/28.0/2025,2000,g 16.0,4.0
# From MPEC 2025-W75
219P/LINEAR,e,11.4605,230.5691,108.4237,3.661311,0.1406854,0.35738526,91.4936,11/28.0/2025,2000,g 11.0,4.0
# From MPEC 2025-W75
220P/McNaught,e,8.1206,150.0860,180.5726,3.120678,0.1787848,0.50036231,324.5761,11/28.0/2025,2000,g 15.0,4.0
# From MPEC 2025-W75
221P/LINEAR,e,10.4498,223.4298,45.0977,3.380523,0.1585727,0.52377731,224.3973,11/28.0/2025,2000,g 14.5,4.0
# From MPEC 2025-W75
222P/LINEAR,e,5.0993,6.7260,346.2850,2.895580,0.2000325,0.71488486,112.8472,11/28.0/2025,2000,g 20.0,4.0
# From MPEC 2025-W75
223P/Skiff,e,27.0061,346.6937,37.9907,4.158219,0.1162367,0.41613632,289.8097,11/28.0/2025,2000,g 12.0,4.0
# From MPEC 2025-W75
224P/LINEAR-NEAT,e,13.2990,40.0393,16.8303,3.447659,0.1539635,0.40539290,177.8139,11/28.0/2025,2000,g 15.5,4.0
# From MPEC 2025-W75
225P/LINEAR,e,21.3577,14.2140,3.9055,3.647591,0.1414799,0.63801232,119.3091,11/28.0/2025,2000,g 18.0,4.0
# From MPEC 2025-W75
226P/Pigott-LINEAR-Kowalski,e,44.0432,54.0171,341.0399,3.765512,0.1348864,0.52870815,94.6938,11/28.0/2025,2000,g 12.5,4.0
# From MPEC 2025-W75
227P/Catalina-LINEAR,e,7.5066,36.7922,105.6090,3.437897,0.1546197,0.52778412,97.3480,11/28.0/2025,2000,g 16.5,2.0
# From MPEC 2025-W75
228P/LINEAR,e,7.9169,30.9505,114.8624,4.161124,0.1161149,0.17763486,242.4718,11/28.0/2025,2000,g 14.5,2.0
# From MPEC 2025-W75
229P/Gibbs,e,26.0979,157.8598,224.2889,3.926264,0.1266878,0.37837439,33.8286,11/28.0/2025,2000,g 13.0,4.0
# From MPEC 2025-W75
230P/LINEAR,e,15.4729,106.9238,313.5916,3.455320,0.1534517,0.54531833,207.0456,11/28.0/2025,2000,g 13.0,4.0
# From MPEC 2025-W75
231P/LINEAR-NEAT,e,12.2747,132.7545,43.5021,4.065765,0.1202239,0.23993954,286.2295,11/28.0/2025,2000,g 14.5,2.0
# From MPEC 2025-W75
232P/Hill,e,14.6429,55.9987,53.3467,4.469102,0.1043215,0.33621786,252.7923,11/28.0/2025,2000,g 11.5,4.0
# From MPEC 2025-W75
233P/LaSagra,e,11.2901,74.9196,26.9885,3.027568,0.1870954,0.41314030,352.3090,11/28.0/2025,2000,g 15.0,4.0
# From MPEC 2025-W75
234P/LINEAR,e,11.5331,179.5579,357.4682,3.798850,0.1331147,0.25743139,53.2763,11/28.0/2025,2000,g 12.0,4.0
# From MPEC 2025-W75
235P/LINEAR,e,9.8132,200.1704,352.1942,3.445641,0.1540987,0.42596359,356.1987,11/28.0/2025,2000,g 12.0,4.0
# From MPEC 2025-W75
236P/LINEAR,e,16.3473,245.5551,119.4732,3.729135,0.1368649,0.50978055,40.6538,11/28.0/2025,2000,g 14.0,4.0
# From MPEC 2025-W75
237P/LINEAR,e,14.0001,245.3573,25.5761,3.519173,0.1492943,0.43176685,138.7496,11/28.0/2025,2000,g 14.5,2.0
# From MPEC 2025-W75
238P/Read,e,1.2636,51.6510,324.2510,3.168062,0.1747888,0.25040737,222.4049,11/28.0/2025,2000,g 14.5,4.0
# From MPEC 2025-W75
239P/LINEAR,e,11.3055,255.9251,220.4114,4.462990,0.1045358,0.63160185,262.5032,11/28.0/2025,2000,g 17.5,2.0
# From MPEC 2025-WD0
240P/NEAT,e,23.5367,74.9115,352.0781,3.860993,0.1299139,0.45049458,357.1483,11/28.0/2025,2000,g 11.0,4.0
# From MPEC 2025-WD0
240P-B/,e,23.5211,74.9206,351.9971,3.857589,0.1300859,0.45010921,357.1641,11/28.0/2025,2000,g 15.5,4.0
# From MPEC 2025-W75
241P/LINEAR,e,21.0942,305.3655,111.6811,4.928644,0.0900768,0.60992766,142.8546,11/28.0/2025,2000,g 13.5,4.0
# From MPEC 2025-WD0
242P/Spahr,e,32.4288,180.1855,245.0562,5.538272,0.0756210,0.28281955,25.6698,11/28.0/2025,2000,g  8.0,4.0
# From MPEC 2025-W75
243P/NEAT,e,7.6444,87.5759,283.7870,3.825860,0.1317075,0.36014526,348.2002,11/28.0/2025,2000,g 12.5,4.0
# From MPEC 2025-W75
244P/Scotti,e,2.2572,354.0022,93.5964,4.905972,0.0907019,0.19973218,100.0842,11/28.0/2025,2000,g  9.0,4.0
# From MPEC 2025-W75
245P/WISE,e,21.1710,316.6668,316.7036,4.053758,0.1207584,0.45591098,345.1290,11/28.0/2025,2000,g 14.0,4.0
# From MPEC 2025-W75
246P/NEAT,e,17.2855,74.0523,185.0553,4.324519,0.1095967,0.21285832,203.1553,11/28.0/2025,2000,g 10.5,4.0
# From MPEC 2025-W75
247P/LINEAR,e,13.6590,53.9998,47.5100,3.962926,0.1249339,0.62560526,318.5264,11/28.0/2025,2000,g 16.5,2.0
# From MPEC 2025-W75
248P/Gibbs,e,6.3511,207.7905,209.9998,5.987390,0.0672741,0.63962080,4.9820,11/28.0/2025,2000,g 14.0,4.0
# From MPEC 2025-W75
249P/LINEAR,e,8.3688,238.9639,65.8703,2.769024,0.2139016,0.81943720,64.0069,11/28.0/2025,2000,g 15.5,4.0
# From MPEC 2025-W75
250P/Larson,e,13.1518,73.3001,45.7032,3.775617,0.1343452,0.39815019,26.2368,11/28.0/2025,2000,g 14.5,4.0
# From MPEC 2025-W75
251P/LINEAR,e,23.3900,219.3367,31.1759,3.511274,0.1497983,0.50416478,97.9588,11/28.0/2025,2000,g 16.5,2.0
# From MPEC 2025-W75
252P/LINEAR,e,10.4207,190.9074,343.3711,3.051564,0.1848930,0.67115371,296.2505,11/28.0/2025,2000,g 17.5,4.0
# From MPEC 2025-W75
253P/PANSTARRS,e,4.9497,146.7973,230.7911,3.464074,0.1528704,0.41562955,61.6083,11/28.0/2025,2000,g 14.5,4.0
# From MPEC 2025-W75
254P/McNaught,e,32.5363,129.1758,219.7000,4.620652,0.0992314,0.31830062,187.2941,11/28.0/2025,2000,g 11.0,4.0
# From MPEC 2025-W75
255P/Levy,e,13.4267,275.6465,186.0347,2.941916,0.1953253,0.71202644,229.8990,11/28.0/2025,2000,g 20.0,4.0
# From MPEC 2025-W75
256P/LINEAR,e,27.6227,81.3167,124.0447,4.634119,0.0987992,0.41817959,98.0075,11/28.0/2025,2000,g 14.0,2.0
# From MPEC 2025-W75
257P/Catalina,e,20.2136,207.7321,117.6978,3.768653,0.1347177,0.42868692,256.9883,11/28.0/2025,2000,g 11.5,4.0
# From MPEC 2025-W75
258P/PANSTARRS,e,6.7512,126.2367,25.6475,4.387803,0.1072342,0.20978959,213.1164,11/28.0/2025,2000,g 13.0,4.0
# From MPEC 2025-W75
259P/Garradd,e,15.8966,51.4359,257.3933,2.729699,0.2185405,0.33874882,303.8356,11/28.0/2025,2000,g 15.5,4.0
# From MPEC 2025-W75
260P/McNaught,e,15.0389,349.2757,18.5147,3.623586,0.1428881,0.60871604,324.2771,11/28.0/2025,2000,g 13.5,4.0
# From MPEC 2025-WD0
261P/Larson,e,6.0734,291.0503,67.3667,3.488843,0.1512453,0.42267475,355.5514,11/28.0/2025,2000,g 14.0,4.0
# From MPEC 2025-W75
262P/McNaught-Russell,e,29.2564,217.8566,171.0955,6.869654,0.0547396,0.81575099,259.0788,11/28.0/2025,2000,g 13.5,4.0
# From MPEC 2025-W75
263P/Gibbs,e,11.5267,105.5039,35.0275,3.040597,0.1858942,0.59419374,191.8173,11/28.0/2025,2000,g 18.0,4.0
# From MPEC 2025-W75
264P/Larsen,e,25.5464,219.0048,341.3811,4.039606,0.1213935,0.33721948,301.7480,11/28.0/2025,2000,g 13.0,4.0
# From MPEC 2025-W75
265P/LINEAR,e,14.3323,342.8784,33.6045,4.261469,0.1120379,0.64647619,196.4816,11/28.0/2025,2000,g 14.5,4.0
# From MPEC 2025-W75
266P/Christensen,e,3.4284,4.9827,97.8086,3.527971,0.1487362,0.34066679,304.2433,11/28.0/2025,2000,g 12.5,4.0
# From MPEC 2025-W75
267P/LONEOS,e,6.1403,228.4288,114.2463,3.205835,0.1717087,0.61543734,99.9171,11/28.0/2025,2000,g 19.5,4.0
# From MPEC 2025-W75
268P/Bernardi,e,15.6613,125.6300,0.0383,4.592118,0.1001577,0.47454233,34.5008,11/28.0/2025,2000,g 14.0,4.0
# From MPEC 2025-W75
269P/Jedicke,e,7.0830,241.7529,225.7735,7.057117,0.0525730,0.43367158,213.7069,11/28.0/2025,2000,g 10.0,4.0
# From MPEC 2025-W75
270P/Gehrels,e,2.9248,223.0320,209.9499,6.647789,0.0575027,0.47015545,260.9191,11/28.0/2025,2000,g  8.0,4.0
# From MPEC 2025-W75
271P/vanHouten-Lemmon,e,6.8637,9.2259,36.6841,7.032763,0.0528464,0.39565729,238.0981,11/28.0/2025,2000,g 11.0,4.0
# From MPEC 2025-W75
272P/NEAT,e,18.0835,109.4391,27.8986,4.462040,0.1045692,0.45563380,128.5378,11/28.0/2025,2000,g 16.0,2.0
# From MPEC 2025-WD0
273P/Pons-Gambart,e,136.2155,320.3471,20.1038,31.90787,0.0054684,0.97475805,0.0000,12/22.7659/2012,2000,g 11.5,4.0
# From MPEC 2025-W75
274P/Tombaugh-Tenagra,e,15.8195,81.3162,38.5114,4.378628,0.1075714,0.44032215,142.9116,11/28.0/2025,2000,g 13.0,4.0
# From MPEC 2025-W75
275P/Hermann,e,21.2495,348.7227,173.8421,5.799287,0.0705736,0.71391566,336.4328,11/28.0/2025,2000,g 15.0,4.0
# From MPEC 2025-WD0
276P/Vorobjov,e,14.7402,211.0513,199.6720,5.382865,0.0789194,0.27575881,27.6998,11/28.0/2025,2000,g 11.5,4.0
# From MPEC 2025-W75
277P/LINEAR,e,16.7933,276.2596,152.4495,3.853530,0.1302915,0.50632352,233.4772,11/28.0/2025,2000,g 14.0,4.0
# From MPEC 2025-W75
278P/McNaught,e,6.6305,11.0919,242.6593,3.621704,0.1429995,0.45446530,266.2104,11/28.0/2025,2000,g 14.0,4.0
# From MPEC 2025-W75
279P/LaSagra,e,5.0544,346.0935,5.5869,3.566946,0.1463051,0.39961560,139.6313,11/28.0/2025,2000,g 14.0,4.0
# From MPEC 2025-W75
280P/Larsen,e,11.7755,131.3787,104.5991,4.523277,0.1024529,0.41694029,86.7398,11/28.0/2025,2000,g 12.5,4.0
# From MPEC 2025-W75
281P/MOSS,e,4.7176,87.1670,27.1078,4.888235,0.0911960,0.17393249,93.6642,11/28.0/2025,2000,g 11.0,4.0
# From MPEC 2025-W75
283P/Spacewatch,e,14.4708,161.1267,22.1468,4.130869,0.1173929,0.48529357,180.9110,11/28.0/2025,2000,g 16.0,2.0
# From MPEC 2025-W75
284P/McNaught,e,11.8518,144.2604,202.4463,3.679482,0.1396446,0.37415596,214.9588,11/28.0/2025,2000,g 13.0,4.0
# From MPEC 2025-W75
